{"type": "FeatureCollection", "features": [ {"type": "Feature", "properties": {"norad_id": 67066, "name": "HULIANWANG DIGUI 16H", "group": "last-30-days", "lat": 48.56137047914163, "lon": 62.38546484084654, "alt_km": 805.0080423684885, "timestamp": "2025-12-17T21:39:44.493877+00:00", "meta": {"OBJECT_NAME": "HULIANWANG DIGUI 16H", "OBJECT_ID": "2025-295H", "EPOCH": "2025-12-12T05:06:20.088000", "MEAN_MOTION": 14.26429655, "ECCENTRICITY": 0.00114905, "INCLINATION": 50.0029, "RA_OF_ASC_NODE": 14.4606, "ARG_OF_PERICENTER": 248.6611, "MEAN_ANOMALY": 111.3077, "EPHEMERIS_TYPE": 0, "CLASSIFICATION_TYPE": "U", "NORAD_CAT_ID": 67066, "ELEMENT_SET_NO": 999, "REV_AT_EPOCH": 4, "BSTAR": 2.4353642e-05, "MEAN_MOTION_DOT": -1.01e-06, "MEAN_MOTION_DDOT": 0}, "tle": {"line1": "1 67066U 25295H   25346.21273250 -.00000101  00000+0  24354-4 0  9994", "line2": "2 67066  50.0029  14.4606 0011490 248.6611 111.3077 14.26429655    45"}}, "geometry": {"type": "Point", "coordinates": [62.38546484084654, 48.56137047914163]}}, {"type": "Feature", "properties": {"norad_id": 67067, "name": "HULIANWANG DIGUI 16J", "group": "last-30-days", "lat": 48.24019604859343, "lon": 60.50575436443169, "alt_km": 804.406586277305, "timestamp": "2025-12-17T21:39:44.493888+00:00", "meta": {"OBJECT_NAME": "HULIANWANG DIGUI 16J", "OBJECT_ID": "2025-295J", "EPOCH": "2025-12-12T05:06:18.555264", "MEAN_MOTION": 14.26361638, "ECCENTRICITY": 0.00104901, "INCLINATION": 50.0044, "RA_OF_ASC_NODE": 14.4694, "ARG_OF_PERICENTER": 253.0387, "MEAN_ANOMALY": 106.9378, "EPHEMERIS_TYPE": 0, "CLASSIFICATION_TYPE": "U", "NORAD_CAT_ID": 67067, "ELEMENT_SET_NO": 999, "REV_AT_EPOCH": 4, "BSTAR": 6.475965e-06, "MEAN_MOTION_DOT": -1.45e-06, "MEAN_MOTION_DDOT": 0}, "tle": {"line1": "1 67067U 25295J   25346.21271476 -.00000145  00000+0  64760-5 0  9997", "line2": "2 67067  50.0044  14.4694 0010490 253.0387 106.9378 14.26361638    49"}}, "geometry": {"type": "Point", "coordinates": [60.50575436443169, 48.24019604859343]}}, {"type": "Feature", "properties": {"norad_id": 67069, "name": "XIWANG-5 02", "group": "last-30-days", "lat": -4.267602577239528, "lon": 67.25228115547117, "alt_km": 511.8781968834073, "timestamp": "2025-12-17T21:39:44.493900+00:00", "meta": {"OBJECT_NAME": "XIWANG-5 02", "OBJECT_ID": "2025-296A", "EPOCH": "2025-12-17T13:47:20.895360", "MEAN_MOTION": 15.16765194, "ECCENTRICITY": 0.00146092, "INCLINATION": 41.3523, "RA_OF_ASC_NODE": 73.9907, "ARG_OF_PERICENTER": 58.8947, "MEAN_ANOMALY": 301.3306, "EPHEMERIS_TYPE": 0, "CLASSIFICATION_TYPE": "U", "NORAD_CAT_ID": 67069, "ELEMENT_SET_NO": 999, "REV_AT_EPOCH": 69, "BSTAR": 0.00053231273, "MEAN_MOTION_DOT": 0.00010489, "MEAN_MOTION_DDOT": 0}, "tle": {"line1": "1 67069U 25296A   25351.57454740  .00010489  00000+0  53231-3 0  9992", "line2": "2 67069  41.3523  73.9907 0014609  58.8947 301.3306 15.16765194   690"}}, "geometry": {"type": "Point", "coordinates": [67.25228115547117, -4.267602577239528]}}, {"type": "Feature", "properties": {"norad_id": 67070, "name": "DEAR-5", "group": "last-30-days", "lat": -1.8817977258285148, "lon": 69.97249758777654, "alt_km": 510.3889798858172, "timestamp": "2025-12-17T21:39:44.493909+00:00", "meta": {"OBJECT_NAME": "DEAR-5", "OBJECT_ID": "2025-296B", "EPOCH": "2025-12-17T13:46:25.696992", "MEAN_MOTION": 15.16870923, "ECCENTRICITY": 0.00162977, "INCLINATION": 41.3551, "RA_OF_ASC_NODE": 73.9884, "ARG_OF_PERICENTER": 60.0812, "MEAN_ANOMALY": 300.1626, "EPHEMERIS_TYPE": 0, "CLASSIFICATION_TYPE": "U", "NORAD_CAT_ID": 67070, "ELEMENT_SET_NO": 999, "REV_AT_EPOCH": 68, "BSTAR": 0.00027240519, "MEAN_MOTION_DOT": 5.282e-05, "MEAN_MOTION_DDOT": 0}, "tle": {"line1": "1 67070U 25296B   25351.57390853  .00005282  00000+0  27241-3 0  9995", "line2": "2 67070  41.3551  73.9884 0016297  60.0812 300.1626 15.16870923   686"}}, "geometry": {"type": "Point", "coordinates": [69.97249758777654, -1.8817977258285148]}}, {"type": "Feature", "properties": {"norad_id": 67071, "name": "KZ-11 R/B", "group": "last-30-days", "lat": 35.248534448095796, "lon": 127.73402908035526, "alt_km": 431.2594056379821, "timestamp": "2025-12-17T21:39:44.493918+00:00", "meta": {"OBJECT_NAME": "KZ-11 R/B", "OBJECT_ID": "2025-296C", "EPOCH": "2025-12-17T14:55:28.972704", "MEAN_MOTION": 14.75938997, "ECCENTRICITY": 0.07237601, "INCLINATION": 41.3363, "RA_OF_ASC_NODE": 75.7494, "ARG_OF_PERICENTER": 348.4478, "MEAN_ANOMALY": 10.0471, "EPHEMERIS_TYPE": 0, "CLASSIFICATION_TYPE": "U", "NORAD_CAT_ID": 67071, "ELEMENT_SET_NO": 999, "REV_AT_EPOCH": 67, "BSTAR": 0.00049933949, "MEAN_MOTION_DOT": 0.05004527, "MEAN_MOTION_DDOT": 5.751627e-06}, "tle": {"line1": "1 67071U 25296C   25351.62186311  .05004527  57516-5  49934-3 0  9993", "line2": "2 67071  41.3363  75.7494 0723760 348.4478  10.0471 14.75938997   670"}}, "geometry": {"type": "Point", "coordinates": [127.73402908035526, 35.248534448095796]}}, {"type": "Feature", "properties": {"norad_id": 67072, "name": "ELECTRON R/B", "group": "last-30-days", "lat": -25.365993254099738, "lon": 143.27562408498838, "alt_km": 402.6115500578999, "timestamp": "2025-12-17T21:39:44.493927+00:00", "meta": {"OBJECT_NAME": "ELECTRON R/B", "OBJECT_ID": "2025-297A", "EPOCH": "2025-12-17T09:37:28.506432", "MEAN_MOTION": 15.80508684, "ECCENTRICITY": 0.02274936, "INCLINATION": 97.4782, "RA_OF_ASC_NODE": 139.1591, "ARG_OF_PERICENTER": 215.5225, "MEAN_ANOMALY": 143.0718, "EPHEMERIS_TYPE": 0, "CLASSIFICATION_TYPE": "U", "NORAD_CAT_ID": 67072, "ELEMENT_SET_NO": 999, "REV_AT_EPOCH": 52, "BSTAR": 0.0013431675, "MEAN_MOTION_DOT": 0.01976328, "MEAN_MOTION_DDOT": 2.233794e-06}, "tle": {"line1": "1 67072U 25297A   25351.40102438  .01976328  22338-5  13432-2 0  9999", "line2": "2 67072  97.4782 139.1591 0227493 215.5225 143.0718 15.80508684   525"}}, "geometry": {"type": "Point", "coordinates": [143.27562408498838, -25.365993254099738]}}, {"type": "Feature", "properties": {"norad_id": 67073, "name": "RAISE-4", "group": "last-30-days", "lat": 44.29508435067003, "lon": -33.316954972331324, "alt_km": 548.9526901595827, "timestamp": "2025-12-17T21:39:44.493936+00:00", "meta": {"OBJECT_NAME": "RAISE-4", "OBJECT_ID": "2025-297B", "EPOCH": "2025-12-17T11:30:13.505472", "MEAN_MOTION": 15.07164515, "ECCENTRICITY": 0.00115539, "INCLINATION": 97.4851, "RA_OF_ASC_NODE": 138.901, "ARG_OF_PERICENTER": 303.6283, "MEAN_ANOMALY": 56.3842, "EPHEMERIS_TYPE": 0, "CLASSIFICATION_TYPE": "U", "NORAD_CAT_ID": 67073, "ELEMENT_SET_NO": 999, "REV_AT_EPOCH": 50, "BSTAR": 0.00025405954, "MEAN_MOTION_DOT": 3.765e-05, "MEAN_MOTION_DDOT": 0}, "tle": {"line1": "1 67073U 25297B   25351.47932298  .00003765  00000+0  25406-3 0  9998", "line2": "2 67073  97.4851 138.9010 0011553 303.6283  56.3842 15.07164515   509"}}, "geometry": {"type": "Point", "coordinates": [-33.316954972331324, 44.29508435067003]}}, {"type": "Feature", "properties": {"norad_id": 67074, "name": "ELECTRON KICK STAGE R/B", "group": "last-30-days", "lat": 49.96007379028792, "lon": 130.59915138646852, "alt_km": 526.1044525836978, "timestamp": "2025-12-17T21:39:44.493947+00:00", "meta": {"OBJECT_NAME": "ELECTRON KICK STAGE R/B", "OBJECT_ID": "2025-297C", "EPOCH": "2025-12-17T09:05:11.264640", "MEAN_MOTION": 15.55159259, "ECCENTRICITY": 0.02047945, "INCLINATION": 97.4815, "RA_OF_ASC_NODE": 139.0484, "ARG_OF_PERICENTER": 252.6282, "MEAN_ANOMALY": 105.2484, "EPHEMERIS_TYPE": 0, "CLASSIFICATION_TYPE": "U", "NORAD_CAT_ID": 67074, "ELEMENT_SET_NO": 999, "REV_AT_EPOCH": 50, "BSTAR": 0.001320075, "MEAN_MOTION_DOT": 0.00234472, "MEAN_MOTION_DDOT": 1.635035e-05}, "tle": {"line1": "1 67074U 25297C   25351.37860260  .00234472  16350-4  13201-2 0  9997", "line2": "2 67074  97.4815 139.0484 0204794 252.6282 105.2484 15.55159259   508"}}, "geometry": {"type": "Point", "coordinates": [130.59915138646852, 49.96007379028792]}}, {"type": "Feature", "properties": {"norad_id": 67131, "name": "ZIYUAN 3-04 (ZY 3-04)", "group": "last-30-days", "lat": 81.22879834361045, "lon": 7.343250454559178, "alt_km": 492.0640914910173, "timestamp": "2025-12-17T21:39:44.493958+00:00", "meta": {"OBJECT_NAME": "ZIYUAN 3-04 (ZY 3-04)", "OBJECT_ID": "2025-300A", "EPOCH": "2025-12-16T05:54:33.890112", "MEAN_MOTION": 15.24627585, "ECCENTRICITY": 0.0011082, "INCLINATION": 97.5012, "RA_OF_ASC_NODE": 64.3338, "ARG_OF_PERICENTER": 268.6179, "MEAN_ANOMALY": 91.3789, "EPHEMERIS_TYPE": 0, "CLASSIFICATION_TYPE": "U", "NORAD_CAT_ID": 67131, "ELEMENT_SET_NO": 999, "REV_AT_EPOCH": 2, "BSTAR": 8.3268042e-05, "MEAN_MOTION_DOT": 1.984e-05, "MEAN_MOTION_DDOT": 0}, "tle": {"line1": "1 67131U 25300A   25350.24622558  .00001984  00000+0  83268-4 0  9999", "line2": "2 67131  97.5012  64.3338 0011082 268.6179  91.3789 15.24627585    26"}}, "geometry": {"type": "Point", "coordinates": [7.343250454559178, 81.22879834361045]}}, {"type": "Feature", "properties": {"norad_id": 67132, "name": "CZ-4B R/B", "group": "last-30-days", "lat": -30.67869233099642, "lon": 70.65481675956073, "alt_km": 295.42168487195704, "timestamp": "2025-12-17T21:39:44.493968+00:00", "meta": {"OBJECT_NAME": "CZ-4B R/B", "OBJECT_ID": "2025-300B", "EPOCH": "2025-12-17T15:38:50.646912", "MEAN_MOTION": 15.63708593, "ECCENTRICITY": 0.017509, "INCLINATION": 97.5588, "RA_OF_ASC_NODE": 65.868, "ARG_OF_PERICENTER": 12.9628, "MEAN_ANOMALY": 347.6044, "EPHEMERIS_TYPE": 0, "CLASSIFICATION_TYPE": "U", "NORAD_CAT_ID": 67132, "ELEMENT_SET_NO": 999, "REV_AT_EPOCH": 24, "BSTAR": 0.00019398, "MEAN_MOTION_DOT": 0.00040269, "MEAN_MOTION_DDOT": 2.64e-06}, "tle": {"line1": "1 67132U 25300B   25351.65197508  .00040269  26400-5  19398-3 0  9997", "line2": "2 67132  97.5588  65.8680 0175090  12.9628 347.6044 15.63708593   247"}}, "geometry": {"type": "Point", "coordinates": [70.65481675956073, -30.67869233099642]}}]}